{"type": "FeatureCollection", "features": [ {"type": "Feature", "properties": {"norad_id": 30860, "name": "FENGYUN 1C DEB", "group": "fengyun-1c-debris", "lat": 52.92595330730225, "lon": 53.217614063330906, "alt_km": 816.0337952349219, "timestamp": "2025-12-17T15:50:10.058973+00:00", "meta": {"OBJECT_NAME": "FENGYUN 1C DEB", "OBJECT_ID": "1999-025AWW", "EPOCH": "2025-12-17T03:47:27.365568", "MEAN_MOTION": 14.25530048, "ECCENTRICITY": 0.00402124, "INCLINATION": 98.9059, "RA_OF_ASC_NODE": 64.6854, "ARG_OF_PERICENTER": 175.3129, "MEAN_ANOMALY": 184.8434, "EPHEMERIS_TYPE": 0, "CLASSIFICATION_TYPE": "U", "NORAD_CAT_ID": 30860, "ELEMENT_SET_NO": 999, "REV_AT_EPOCH": 96579, "BSTAR": 0.0012587435, "MEAN_MOTION_DOT": 2.957e-05, "MEAN_MOTION_DDOT": 0}, "tle": {"line1": "1 30860U 99025AWW 25351.15795562  .00002957  00000+0  12587-2 0  9995", "line2": "2 30860  98.9059  64.6854 0040212 175.3129 184.8434 14.25530048965799"}}, "geometry": {"type": "Point", "coordinates": [53.217614063330906, 52.92595330730225]}}, {"type": "Feature", "properties": {"norad_id": 30862, "name": "FENGYUN 1C DEB", "group": "fengyun-1c-debris", "lat": 13.022560935673305, "lon": -95.23412703455476, "alt_km": 713.5283741415433, "timestamp": "2025-12-17T15:50:10.058984+00:00", "meta": {"OBJECT_NAME": "FENGYUN 1C DEB", "OBJECT_ID": "1999-025AWY", "EPOCH": "2025-12-17T05:13:21.995616", "MEAN_MOTION": 14.43167905, "ECCENTRICITY": 0.00522868, "INCLINATION": 98.9603, "RA_OF_ASC_NODE": 82.2098, "ARG_OF_PERICENTER": 150.6942, "MEAN_ANOMALY": 239.608, "EPHEMERIS_TYPE": 0, "CLASSIFICATION_TYPE": "U", "NORAD_CAT_ID": 30862, "ELEMENT_SET_NO": 999, "REV_AT_EPOCH": 96784, "BSTAR": 0.0025604626, "MEAN_MOTION_DOT": 8.708e-05, "MEAN_MOTION_DDOT": 0}, "tle": {"line1": "1 30862U 99025AWY 25351.21761569  .00008708  00000+0  25605-2 0  9999", "line2": "2 30862  98.9603  82.2098 0052286 150.6942 239.6080 14.43167905967847"}}, "geometry": {"type": "Point", "coordinates": [-95.23412703455476, 13.022560935673305]}}, {"type": "Feature", "properties": {"norad_id": 30863, "name": "FENGYUN 1C DEB", "group": "fengyun-1c-debris", "lat": 80.42148599172974, "lon": 109.46610256147234, "alt_km": 2099.5559909252397, "timestamp": "2025-12-17T15:50:10.058995+00:00", "meta": {"OBJECT_NAME": "FENGYUN 1C DEB", "OBJECT_ID": "1999-025AWZ", "EPOCH": "2025-12-17T00:43:11.549856", "MEAN_MOTION": 12.40528644, "ECCENTRICITY": 0.08776341, "INCLINATION": 99.1178, "RA_OF_ASC_NODE": 181.0813, "ARG_OF_PERICENTER": 241.3631, "MEAN_ANOMALY": 279.0654, "EPHEMERIS_TYPE": 0, "CLASSIFICATION_TYPE": "U", "NORAD_CAT_ID": 30863, "ELEMENT_SET_NO": 999, "REV_AT_EPOCH": 59793, "BSTAR": 0.0033144379, "MEAN_MOTION_DOT": 1.711e-05, "MEAN_MOTION_DDOT": 0}, "tle": {"line1": "1 30863U 99025AWZ 25351.02999479  .00001711  00000+0  33144-2 0  9996", "line2": "2 30863  99.1178 181.0813 0877634 241.3631 279.0654 12.40528644597936"}}, "geometry": {"type": "Point", "coordinates": [109.46610256147234, 80.42148599172974]}}, {"type": "Feature", "properties": {"norad_id": 30867, "name": "FENGYUN 1C DEB", "group": "fengyun-1c-debris", "lat": 16.75735318858379, "lon": 80.40326455386099, "alt_km": 837.6430170376316, "timestamp": "2025-12-17T15:50:10.059006+00:00", "meta": {"OBJECT_NAME": "FENGYUN 1C DEB", "OBJECT_ID": "1999-025AXD", "EPOCH": "2025-12-17T05:41:33.926208", "MEAN_MOTION": 14.28048043, "ECCENTRICITY": 0.00541563, "INCLINATION": 97.8772, "RA_OF_ASC_NODE": 257.6327, "ARG_OF_PERICENTER": 342.5338, "MEAN_ANOMALY": 168.9296, "EPHEMERIS_TYPE": 0, "CLASSIFICATION_TYPE": "U", "NORAD_CAT_ID": 30867, "ELEMENT_SET_NO": 999, "REV_AT_EPOCH": 96601, "BSTAR": 0.0018599117, "MEAN_MOTION_DOT": 4.655e-05, "MEAN_MOTION_DDOT": 0}, "tle": {"line1": "1 30867U 99025AXD 25351.23719822  .00004655  00000+0  18599-2 0  9992", "line2": "2 30867  97.8772 257.6327 0054156 342.5338 168.9296 14.28048043966014"}}, "geometry": {"type": "Point", "coordinates": [80.40326455386099, 16.75735318858379]}}, {"type": "Feature", "properties": {"norad_id": 30868, "name": "FENGYUN 1C DEB", "group": "fengyun-1c-debris", "lat": 57.80945036604943, "lon": -144.0396363727421, "alt_km": 924.2918657020928, "timestamp": "2025-12-17T15:50:10.059016+00:00", "meta": {"OBJECT_NAME": "FENGYUN 1C DEB", "OBJECT_ID": "1999-025AXE", "EPOCH": "2025-12-16T11:13:11.203392", "MEAN_MOTION": 14.11122196, "ECCENTRICITY": 0.0135335, "INCLINATION": 98.2632, "RA_OF_ASC_NODE": 228.2096, "ARG_OF_PERICENTER": 202.1695, "MEAN_ANOMALY": 283.9237, "EPHEMERIS_TYPE": 0, "CLASSIFICATION_TYPE": "U", "NORAD_CAT_ID": 30868, "ELEMENT_SET_NO": 999, "REV_AT_EPOCH": 96763, "BSTAR": 0.00014364777, "MEAN_MOTION_DOT": 2.43e-06, "MEAN_MOTION_DDOT": 0}, "tle": {"line1": "1 30868U 99025AXE 25350.46749078  .00000243  00000+0  14365-3 0  9990", "line2": "2 30868  98.2632 228.2096 0135335 202.1695 283.9237 14.11122196967634"}}, "geometry": {"type": "Point", "coordinates": [-144.0396363727421, 57.80945036604943]}}, {"type": "Feature", "properties": {"norad_id": 30872, "name": "FENGYUN 1C DEB", "group": "fengyun-1c-debris", "lat": 9.207883759926979, "lon": 42.87798615992133, "alt_km": 733.0779368790645, "timestamp": "2025-12-17T15:50:10.059027+00:00", "meta": {"OBJECT_NAME": "FENGYUN 1C DEB", "OBJECT_ID": "1999-025AXJ", "EPOCH": "2025-12-17T02:35:32.051040", "MEAN_MOTION": 14.39447186, "ECCENTRICITY": 0.0040605, "INCLINATION": 99.1929, "RA_OF_ASC_NODE": 43.7909, "ARG_OF_PERICENTER": 15.8873, "MEAN_ANOMALY": 15.6283, "EPHEMERIS_TYPE": 0, "CLASSIFICATION_TYPE": "U", "NORAD_CAT_ID": 30872, "ELEMENT_SET_NO": 999, "REV_AT_EPOCH": 97799, "BSTAR": 0.00065883587, "MEAN_MOTION_DOT": 2.022e-05, "MEAN_MOTION_DDOT": 0}, "tle": {"line1": "1 30872U 99025AXJ 25351.10800985  .00002022  00000+0  65884-3 0  9991", "line2": "2 30872  99.1929  43.7909 0040605  15.8873  15.6283 14.39447186977993"}}, "geometry": {"type": "Point", "coordinates": [42.87798615992133, 9.207883759926979]}}, {"type": "Feature", "properties": {"norad_id": 30873, "name": "FENGYUN 1C DEB", "group": "fengyun-1c-debris", "lat": -62.35053494685066, "lon": 8.643291600783172, "alt_km": 763.2847758047947, "timestamp": "2025-12-17T15:50:10.059037+00:00", "meta": {"OBJECT_NAME": "FENGYUN 1C DEB", "OBJECT_ID": "1999-025AXK", "EPOCH": "2025-12-15T23:31:15.833568", "MEAN_MOTION": 14.19141034, "ECCENTRICITY": 0.01077135, "INCLINATION": 98.6116, "RA_OF_ASC_NODE": 350.1971, "ARG_OF_PERICENTER": 279.3204, "MEAN_ANOMALY": 79.5805, "EPHEMERIS_TYPE": 0, "CLASSIFICATION_TYPE": "U", "NORAD_CAT_ID": 30873, "ELEMENT_SET_NO": 999, "REV_AT_EPOCH": 97238, "BSTAR": 0.00021193765, "MEAN_MOTION_DOT": 4.26e-06, "MEAN_MOTION_DDOT": 0}, "tle": {"line1": "1 30873U 99025AXK 25349.98004437  .00000426  00000+0  21194-3 0  9995", "line2": "2 30873  98.6116 350.1971 0107713 279.3204  79.5805 14.19141034972387"}}, "geometry": {"type": "Point", "coordinates": [8.643291600783172, -62.35053494685066]}}, {"type": "Feature", "properties": {"norad_id": 30874, "name": "FENGYUN 1C DEB", "group": "fengyun-1c-debris", "lat": -40.5816969641965, "lon": -165.28122782593238, "alt_km": 862.1399715544685, "timestamp": "2025-12-17T15:50:10.059048+00:00", "meta": {"OBJECT_NAME": "FENGYUN 1C DEB", "OBJECT_ID": "1999-025AXL", "EPOCH": "2025-12-17T01:31:55.699968", "MEAN_MOTION": 14.19657849, "ECCENTRICITY": 0.0041798, "INCLINATION": 98.4905, "RA_OF_ASC_NODE": 21.4983, "ARG_OF_PERICENTER": 28.1309, "MEAN_ANOMALY": 28.7347, "EPHEMERIS_TYPE": 0, "CLASSIFICATION_TYPE": "U", "NORAD_CAT_ID": 30874, "ELEMENT_SET_NO": 999, "REV_AT_EPOCH": 97082, "BSTAR": 0.00040927433, "MEAN_MOTION_DOT": 8.31e-06, "MEAN_MOTION_DDOT": 0}, "tle": {"line1": "1 30874U 99025AXL 25351.06383912  .00000831  00000+0  40927-3 0  9991", "line2": "2 30874  98.4905  21.4983 0041798  28.1309  28.7347 14.19657849970829"}}, "geometry": {"type": "Point", "coordinates": [-165.28122782593238, -40.5816969641965]}}, {"type": "Feature", "properties": {"norad_id": 30876, "name": "FENGYUN 1C DEB", "group": "fengyun-1c-debris", "lat": -74.39447623747418, "lon": 10.279896608702627, "alt_km": 858.3483837866233, "timestamp": "2025-12-17T15:50:10.059058+00:00", "meta": {"OBJECT_NAME": "FENGYUN 1C DEB", "OBJECT_ID": "1999-025AXN", "EPOCH": "2025-12-17T05:58:58.282752", "MEAN_MOTION": 13.99173817, "ECCENTRICITY": 0.00663008, "INCLINATION": 98.8104, "RA_OF_ASC_NODE": 336.156, "ARG_OF_PERICENTER": 264.9068, "MEAN_ANOMALY": 110.9745, "EPHEMERIS_TYPE": 0, "CLASSIFICATION_TYPE": "U", "NORAD_CAT_ID": 30876, "ELEMENT_SET_NO": 999, "REV_AT_EPOCH": 95773, "BSTAR": 0.00048195516, "MEAN_MOTION_DOT": 6.69e-06, "MEAN_MOTION_DDOT": 0}, "tle": {"line1": "1 30876U 99025AXN 25351.24928568  .00000669  00000+0  48196-3 0  9990", "line2": "2 30876  98.8104 336.1560 0066300 264.9068 110.9745 13.99173817957737"}}, "geometry": {"type": "Point", "coordinates": [10.279896608702627, -74.39447623747418]}}, {"type": "Feature", "properties": {"norad_id": 30878, "name": "FENGYUN 1C DEB", "group": "fengyun-1c-debris", "lat": -79.61661048610712, "lon": 116.10807854129304, "alt_km": 832.4168089626219, "timestamp": "2025-12-17T15:50:10.059069+00:00", "meta": {"OBJECT_NAME": "FENGYUN 1C DEB", "OBJECT_ID": "1999-025AXQ", "EPOCH": "2025-12-16T12:05:29.829408", "MEAN_MOTION": 14.11894381, "ECCENTRICITY": 0.00399575, "INCLINATION": 98.7205, "RA_OF_ASC_NODE": 351.8759, "ARG_OF_PERICENTER": 283.5644, "MEAN_ANOMALY": 228.3311, "EPHEMERIS_TYPE": 0, "CLASSIFICATION_TYPE": "U", "NORAD_CAT_ID": 30878, "ELEMENT_SET_NO": 999, "REV_AT_EPOCH": 96420, "BSTAR": 0.00054652556, "MEAN_MOTION_DOT": 9.63e-06, "MEAN_MOTION_DDOT": 0}, "tle": {"line1": "1 30878U 99025AXQ 25350.50381747  .00000963  00000+0  54653-3 0  9994", "line2": "2 30878  98.7205 351.8759 0039957 283.5644 228.3311 14.11894381964203"}}, "geometry": {"type": "Point", "coordinates": [116.10807854129304, -79.61661048610712]}}]}